[{"OBJECT_NAME":"STARLINK-30597","OBJECT_ID":"2023-160D","EPOCH":"2026-03-09T21:56:06.562176","MEAN_MOTION":15.26748428,"ECCENTRICITY":0.00010278,"INCLINATION":43.0011,"RA_OF_ASC_NODE":76.302,"ARG_OF_PERICENTER":248.1499,"MEAN_ANOMALY":111.9243,"EPHEMERIS_TYPE":0,"CLASSIFICATION_TYPE":"U","NORAD_CAT_ID":58078,"ELEMENT_SET_NO":999,"REV_AT_EPOCH":13298,"BSTAR":0.00075358598,"MEAN_MOTION_DOT":0.00020014,"MEAN_MOTION_DDOT":0},{"OBJECT_NAME":"OBJECT A","OBJECT_ID":"2024-203A","EPOCH":"2026-03-09T23:31:20.812800","MEAN_MOTION":15.27300571,"ECCENTRICITY":0.00108989,"INCLINATION":97.4288,"RA_OF_ASC_NODE":139.5608,"ARG_OF_PERICENTER":322.6893,"MEAN_ANOMALY":37.3588,"EPHEMERIS_TYPE":0,"CLASSIFICATION_TYPE":"U","NORAD_CAT_ID":61869,"ELEMENT_SET_NO":999,"REV_AT_EPOCH":7380,"BSTAR":0.00061472876,"MEAN_MOTION_DOT":0.00016411,"MEAN_MOTION_DDOT":0}]
